NORAD_CAT_ID,OBJECT_NAME,OBJECT_TYPE,EPOCH,MEAN_MOTION,ECCENTRICITY,INCLINATION,RA_OF_ASC_NODE,ARG_OF_PERICENTER,MEAN_ANOMALY,BSTAR,MEAN_MOTION_DOT,MEAN_MOTION_DDOT,TLE_LINE0,TLE_LINE1,TLE_LINE2,SEMIMAJOR_AXIS,PERIOD,APOGEE,PERIGEE,DECAYED
56814.0,STARLINK-6059,PAYLOAD,2023-07-11 00:22:25,15.69926059,0.0003608,69.9985,298.7378,270.4216,89.6566,1.1063e-05,1.118e-05,0.0,0 STARLINK-6059,1 56814U 23078AZ  23192.01557458  .00001118  00000-0  11063-4 0  9992,2 56814  69.9985 298.7378 0003608 270.4216  89.6566 15.69926059  6700,6737.246,91.724,361.541,356.68,0.0
56814.0,STARLINK-6059,PAYLOAD,2023-07-12 16:07:58,15.69927159,0.0003479,69.9979,294.0788,268.3581,91.7217,1.7941e-05,1.945e-05,0.0,0 STARLINK-6059,1 56814U 23078AZ  23193.67220787  .00001945  00000-0  17941-4 0  9996,2 56814  69.9979 294.0788 0003479 268.3581  91.7217 15.69927159  6961,6737.242,91.724,361.451,356.764,0.0
56814.0,STARLINK-6059,PAYLOAD,2023-07-13 16:36:01,15.69924722,0.0003007,69.9991,291.2159,265.2714,94.8139,1.2525e-05,1.294e-05,0.0,0 STARLINK-6059,1 56814U 23078AZ  23194.69168184  .00001294  00000-0  12525-4 0  9991,2 56814  69.9991 291.2159 0003007 265.2714  94.8139 15.69924722  7126,6737.249,91.724,361.14,357.088,0.0
56814.0,STARLINK-6059,PAYLOAD,2023-07-14 15:32:17,15.6993883,0.0003415,69.9976,288.5249,266.2011,93.8795,2.5095e-05,2.807e-05,0.0,0 STARLINK-6059,1 56814U 23078AZ  23195.64742197  .00002807  00000-0  25095-4 0  9996,2 56814  69.9976 288.5249 0003415 266.2011  93.8795 15.69938830  7270,6737.209,91.723,361.375,356.773,0.0
56814.0,STARLINK-6059,PAYLOAD,2023-07-14 23:11:03,15.69921662,0.0003497,69.9984,287.63,267.9798,92.0997,-4.5232e-06,-7.57e-06,0.0,0 STARLINK-6059,1 56814U 23078AZ  23195.96601344 -.00000757  00000-0 -45232-5 0  9999,2 56814  69.9984 287.6300 0003497 267.9798  92.0997 15.69921662  7323,6737.258,91.724,361.479,356.767,0.0
56814.0,STARLINK-6059,PAYLOAD,2023-07-15 16:00:20,15.69905184,0.0002956,69.9994,285.6609,283.6492,76.4374,-4.4093e-05,-5.506e-05,0.0,0 STARLINK-6059,1 56814U 23078AZ  23196.66690534 -.00005506  00000-0 -44093-4 0  9996,2 56814  69.9994 285.6609 0002956 283.6492  76.4374 15.69905184  7437,6737.305,91.725,361.162,357.179,0.0
56814.0,STARLINK-6059,PAYLOAD,2023-07-16 01:10:50,15.69918896,0.0003619,69.9988,284.5855,275.9567,84.1216,-4.2675e-06,-7.26e-06,0.0,0 STARLINK-6059,1 56814U 23078AZ  23197.04920027 -.00000726  00000-0 -42675-5 0  9996,2 56814  69.9988 284.5855 0003619 275.9567  84.1216 15.69918896  7496,6737.266,91.724,361.569,356.693,0.0
56814.0,STARLINK-6059,PAYLOAD,2023-07-16 07:17:51,15.69927381,0.000354,69.9977,283.8674,271.1748,88.9042,1.9421e-05,2.123e-05,0.0,0 STARLINK-6059,1 56814U 23078AZ  23197.30406351  .00002123  00000-0  19421-4 0  9997,2 56814  69.9977 283.8674 0003540 271.1748  88.9042 15.69927381  7530,6737.242,91.724,361.492,356.722,0.0
56814.0,STARLINK-6059,PAYLOAD,2023-07-16 14:56:36,15.69939818,0.0003485,69.9981,282.9717,272.6196,87.4601,6.3322e-05,7.413e-05,0.0,0 STARLINK-6059,1 56814U 23078AZ  23197.62264369  .00007413  00000-0  63322-4 0  9999,2 56814  69.9981 282.9717 0003485 272.6196  87.4601 15.69939818  7582,6737.206,91.723,361.419,356.723,0.0
56814.0,STARLINK-6059,PAYLOAD,2023-07-17 07:45:53,15.69926632,0.0002743,69.9994,281.0012,270.0034,90.0847,1.5276e-05,1.625e-05,0.0,0 STARLINK-6059,1 56814U 23078AZ  23198.32353144  .00001625  00000-0  15276-4 0  9991,2 56814  69.9994 281.0012 0002743 270.0034  90.0847 15.69926632  7697,6737.244,91.724,360.957,357.261,0.0
56814.0,STARLINK-6059,PAYLOAD,2023-07-18 08:13:55,15.69923143,0.0003217,69.9991,278.1374,271.292,88.7907,5.0281e-06,3.92e-06,0.0,0 STARLINK-6059,1 56814U 23078AZ  23199.34300105  .00000392  00000-0  50281-5 0  9999,2 56814  69.9991 278.1374 0003217 271.2920  88.7907 15.69923143  7859,6737.254,91.724,361.286,356.952,0.0
56814.0,STARLINK-6059,PAYLOAD,2023-07-18 17:24:25,15.69935507,0.0003183,69.9987,277.06,269.7307,90.3524,5.3291e-05,6.203e-05,0.0,0 STARLINK-6059,1 56814U 23078AZ  23199.72529754  .00006203  00000-0  53291-4 0  9994,2 56814  69.9987 277.0600 0003183 269.7307  90.3524 15.69935507  7915,6737.219,91.724,361.228,356.939,0.0
56814.0,STARLINK-6059,PAYLOAD,2023-07-19 08:41:57,15.69918992,0.0003056,69.9996,275.269,271.0392,89.0453,1.7849e-05,1.934e-05,0.0,0 STARLINK-6059,1 56814U 23078AZ  23200.36247294  .00001934  00000-0  17849-4 0  9998,2 56814  69.9996 275.2690 0003056 271.0392  89.0453 15.69918992  8010,6737.266,91.724,361.19,357.072,0.0
56814.0,STARLINK-6059,PAYLOAD,2023-07-19 16:20:43,15.69927806,0.0002871,69.9983,274.3705,273.4573,86.6294,6.9637e-05,8.169e-05,0.0,0 STARLINK-6059,1 56814U 23078AZ  23200.68105633  .00008169  00000-0  69637-4 0  9992,2 56814  69.9983 274.3705 0002871 273.4573  86.6294 15.69927806  8069,6737.241,91.724,361.04,357.171,0.0
56814.0,STARLINK-6059,PAYLOAD,2023-07-20 16:48:44,15.69942784,0.0003058,69.9983,271.5086,265.7033,94.3813,0.00012084,0.00014353,0.0,0 STARLINK-6059,1 56814U 23078AZ  23201.70052043  .00014353  00000-0  12084-3 0  9997,2 56814  69.9983 271.5086 0003058 265.7033  94.3813 15.69942784  8226,6737.198,91.723,361.123,357.002,0.0
56814.0,STARLINK-6059,PAYLOAD,2023-07-21 03:31:00,15.69950521,0.0002367,70.0004,270.2547,306.2287,53.8689,0.00018792,0.00022465,0.0,0 STARLINK-6059,1 56814U 23078AZ  23202.14653791  .00022465  00000-0  18792-3 0  9998,2 56814  70.0004 270.2547 0002367 306.2287  53.8689 15.69950521  8291,6737.176,91.723,360.635,357.446,0.0
56814.0,STARLINK-6059,PAYLOAD,2023-07-21 17:16:47,15.69923069,0.0002516,69.9986,268.6395,273.5847,86.5061,1.343e-05,1.403e-05,0.0,0 STARLINK-6059,1 56814U 23078AZ  23202.71999044  .00001403  00000-0  13430-4 0  9999,2 56814  69.9986 268.6395 0002516 273.5847  86.5061 15.69923069  8387,6737.254,91.724,360.814,357.424,0.0
56814.0,STARLINK-6059,PAYLOAD,2023-07-23 16:41:06,15.6992996,0.0001923,69.9986,263.0847,303.3177,56.7834,0.00010042,0.0001188,0.0,0 STARLINK-6059,1 56814U 23078AZ  23204.69521616  .00011880  00000-0  10042-3 0  9999,2 56814  69.9986 263.0847 0001923 303.3177  56.7834 15.69929960  8436,6737.234,91.724,360.395,357.804,0.0
56814.0,STARLINK-6059,PAYLOAD,2023-07-25 11:30:09,15.69946096,0.000372,69.9993,258.0707,275.5201,84.5571,0.00010592,0.00012554,0.0,0 STARLINK-6059,1 56814U 23078AZ  23206.47927434  .00012554  00000-0  10592-3 0  9994,2 56814  69.9993 258.0707 0003720 275.5201  84.5571 15.69946096  8715,6737.188,91.723,361.559,356.547,0.0
56814.0,STARLINK-6059,PAYLOAD,2023-07-26 05:51:10,15.69948737,0.0003411,69.9996,255.9192,270.029,90.0515,2.6393e-05,2.965e-05,0.0,0 STARLINK-6059,1 56814U 23078AZ  23207.24387180  .00002965  00000-0  26393-4 0  9990,2 56814  69.9996 255.9192 0003411 270.0290  90.0515 15.69948737  8834,6737.181,91.723,361.344,356.748,0.0
56814.0,STARLINK-6059,PAYLOAD,2023-07-26 15:01:41,15.69940107,0.0003457,70.0014,254.8431,272.7084,87.3716,5.9231e-05,6.92e-05,0.0,0 STARLINK-6059,1 56814U 23078AZ  23207.62617207  .00006920  00000-0  59231-4 0  9990,2 56814  70.0014 254.8431 0003457 272.7084  87.3716 15.69940107  9153,6737.205,91.723,361.399,356.741,0.0
56814.0,STARLINK-6059,PAYLOAD,2023-07-26 21:08:41,15.69939764,0.0003451,69.9991,254.1287,272.1076,87.9724,5.0004e-05,5.808e-05,0.0,0 STARLINK-6059,1 56814U 23078AZ  23207.88103759  .00005808  00000-0  50004-4 0  9993,2 56814  69.9991 254.1287 0003451 272.1076  87.9724 15.69939764  8932,6737.206,91.723,361.396,356.746,0.0
56814.0,STARLINK-6059,PAYLOAD,2023-07-27 09:22:43,15.69917982,0.0003046,69.9988,252.6947,264.6282,95.4566,-5.2704e-06,-8.46e-06,0.0,0 STARLINK-6059,1 56814U 23078AZ  23208.39077918 -.00000846  00000-0 -52704-5 0  9996,2 56814  69.9988 252.6947 0003046 264.6282  95.4566 15.69917982  9273,6737.269,91.725,361.186,357.081,0.0
56814.0,STARLINK-6059,PAYLOAD,2023-07-27 20:04:58,15.69935546,0.00032,69.9991,251.4408,264.654,95.4291,8.2145e-05,9.68e-05,0.0,0 STARLINK-6059,1 56814U 23078AZ  23208.83679383  .00009680  00000-0  82145-4 0  9993,2 56814  69.9991 251.4408 0003200 264.6540  95.4291 15.69935546  9085,6737.218,91.724,361.239,356.927,0.0
56814.0,STARLINK-6059,PAYLOAD,2023-07-28 05:15:30,15.69925033,0.000348,69.9995,250.3661,262.9447,97.1353,7.2749e-05,8.544e-05,0.0,0 STARLINK-6059,1 56814U 23078AZ  23209.21909778  .00008544  00000-0  72749-4 0  9997,2 56814  69.9995 250.3661 0003480 262.9447  97.1353 15.69925033  9409,6737.248,91.724,361.458,356.769,0.0
56814.0,STARLINK-6059,PAYLOAD,2023-07-29 10:18:47,15.69931688,0.0003146,69.9992,246.9621,262.518,97.5658,4.4427e-05,5.134e-05,0.0,0 STARLINK-6059,1 56814U 23078AZ  23210.42971264  .00005134  00000-0  44427-4 0  9995,2 56814  69.9992 246.9621 0003146 262.5180  97.5658 15.69931688  9597,6737.229,91.724,361.214,356.975,0.0
56814.0,STARLINK-6059,PAYLOAD,2023-07-29 14:54:03,15.69895496,0.0003296,69.9997,246.425,263.8652,96.2168,-8.449e-05,-0.00010347,0.0,0 STARLINK-6059,1 56814U 23078AZ  23210.62087219 -.00010347  00000-0 -84490-4 0  9993,2 56814  69.9997 246.4250 0003296 263.8652  96.2168 15.69895496  9621,6737.333,91.726,361.419,356.977,0.0
56814.0,STARLINK-6059,PAYLOAD,2023-07-30 01:36:19,15.69900585,0.0004471,69.9991,245.1712,256.8089,103.2608,-3.5358e-05,-4.46e-05,0.0,0 STARLINK-6059,1 56814U 23078AZ  23211.06689157 -.00004460  00000-0 -35358-4 0  9999,2 56814  69.9991 245.1712 0004471 256.8089 103.2608 15.69900585  9697,6737.318,91.726,362.196,356.171,0.0
56814.0,STARLINK-6059,PAYLOAD,2023-07-30 10:46:49,15.6992955,0.0002521,69.9985,244.0953,250.3705,109.7219,7.1191e-05,8.357e-05,0.0,0 STARLINK-6059,1 56814U 23078AZ  23211.44918906  .00008357  00000-0  71191-4 0  9990,2 56814  69.9985 244.0953 0002521 250.3705 109.7219 15.69929550  9752,6737.236,91.724,360.799,357.402,0.0
56814.0,STARLINK-6059,PAYLOAD,2023-07-30 13:50:19,15.69953211,0.0003772,69.9988,243.7394,260.524,99.5529,0.00015615,0.00018628,0.0,0 STARLINK-6059,1 56814U 23078AZ  23211.57661377  .00018628  00000-0  15615-3 0  9991,2 56814  69.9988 243.7394 0003772 260.5240  99.5529 15.69953211  9779,6737.168,91.722,361.574,356.492,0.0
